NORAD_CAT_ID,OBJECT_NAME,OBJECT_TYPE,EPOCH,MEAN_MOTION,ECCENTRICITY,INCLINATION,RA_OF_ASC_NODE,ARG_OF_PERICENTER,MEAN_ANOMALY,BSTAR,MEAN_MOTION_DOT,MEAN_MOTION_DDOT,TLE_LINE0,TLE_LINE1,TLE_LINE2,SEMIMAJOR_AXIS,PERIOD,APOGEE,PERIGEE,DECAYED
52118.0,STARLINK-3743,PAYLOAD,2023-04-09 12:43:26,15.0884469,0.0001155,53.2144,180.8086,102.8403,257.2718,0.00010201,1.336e-05,0.0,0 STARLINK-3743,1 52118U 22029AG  23099.53017104  .00001336  00000-0  10201-3 0  9996,2 52118  53.2144 180.8086 0001155 102.8403 257.2718 15.08844690 59987,6917.866,95.437,540.53,538.932,0.0
52118.0,STARLINK-3743,PAYLOAD,2023-04-10 04:37:18,15.08838124,8.52e-05,53.2143,177.8366,107.2096,252.8989,9.6386e-05,1.247e-05,0.0,0 STARLINK-3743,1 52118U 22029AG  23100.19257403  .00001247  00000-0  96386-4 0  9999,2 52118  53.2143 177.8366 0000852 107.2096 252.8989 15.08838124 60082,6917.886,95.438,540.341,539.162,0.0
52118.0,STARLINK-3743,PAYLOAD,2023-04-11 12:24:59,15.08889804,0.0001612,53.2157,171.8885,123.3866,236.7281,-0.00052358,-8.623e-05,0.0,0 STARLINK-3743,1 52118U 22029AG  23101.51735325 -.00008623  00000-0 -52358-3 0  9997,2 52118  53.2157 171.8885 0001612 123.3866 236.7281 15.08889804 60285,6917.728,95.434,540.708,538.478,0.0
52118.0,STARLINK-3743,PAYLOAD,2023-04-12 04:18:52,15.0883842,0.0001362,53.2156,168.9151,85.0125,275.1022,4.9521e-05,5e-06,0.0,0 STARLINK-3743,1 52118U 22029AG  23102.17977680  .00000500  00000-0  49521-4 0  9995,2 52118  53.2156 168.9151 0001362  85.0125 275.1022 15.08838420 60380,6917.885,95.438,540.692,538.808,0.0
52118.0,STARLINK-3743,PAYLOAD,2023-04-12 10:40:25,15.0883377,0.0001319,53.2148,167.7257,70.3631,289.7503,1.1913e-05,-9.8e-07,0.0,0 STARLINK-3743,1 52118U 22029AG  23102.44474134 -.00000098  00000-0  11913-4 0  9998,2 52118  53.2148 167.7257 0001319  70.3631 289.7503 15.08833770 60429,6917.899,95.438,540.677,538.852,0.0
52118.0,STARLINK-3743,PAYLOAD,2023-04-13 10:31:12,15.08841456,0.0001228,53.215,163.2635,90.1877,269.9256,5.8753e-05,6.47e-06,0.0,0 STARLINK-3743,1 52118U 22029AG  23103.43833461  .00000647  00000-0  58753-4 0  9992,2 52118  53.2150 163.2635 0001228  90.1877 269.9256 15.08841456 60575,6917.876,95.437,540.59,538.891,0.0
52118.0,STARLINK-3743,PAYLOAD,2023-04-13 15:17:20,15.0885069,0.0001173,53.2155,162.3702,94.7886,265.324,6.357e-05,7.24e-06,0.0,0 STARLINK-3743,1 52118U 22029AG  23103.63704754  .00000724  00000-0  63570-4 0  9995,2 52118  53.2155 162.3702 0001173  94.7886 265.3240 15.08850690 60601,6917.848,95.437,540.524,538.901,0.0
52118.0,STARLINK-3743,PAYLOAD,2023-04-14 10:21:59,15.0883847,0.0001313,53.2145,158.8022,88.3641,271.7502,9.3213e-05,1.196e-05,0.0,0 STARLINK-3743,1 52118U 22029AG  23104.43193741  .00001196  00000-0  93213-4 0  9993,2 52118  53.2145 158.8022 0001313  88.3641 271.7502 15.08838470 60726,6917.885,95.438,540.658,538.842,0.0
52118.0,STARLINK-3743,PAYLOAD,2023-04-15 10:12:46,15.08842354,0.0001252,53.2145,154.3414,95.8365,264.277,6.922e-05,8.14e-06,0.0,0 STARLINK-3743,1 52118U 22029AG  23105.42553861  .00000814  00000-0  69220-4 0  9993,2 52118  53.2145 154.3414 0001252  95.8365 264.2770 15.08842354 60876,6917.873,95.437,540.604,538.872,0.0
52118.0,STARLINK-3743,PAYLOAD,2023-04-15 19:45:05,15.08844079,0.0001291,53.2154,152.5589,112.8292,247.2837,2.82e-05,1.61e-06,0.0,0 STARLINK-3743,1 52118U 22029AG  23105.82297748  .00000161  00000-0  28200-4 0  9994,2 52118  53.2154 152.5589 0001291 112.8292 247.2837 15.08844079 60939,6917.868,95.437,540.626,538.84,0.0
52118.0,STARLINK-3743,PAYLOAD,2023-04-16 02:06:38,15.08835003,0.0001245,53.2162,151.3705,91.519,268.5945,0.0001157,1.554e-05,0.0,0 STARLINK-3743,1 52118U 22029AG  23106.08794319  .00001554  00000-0  11570-3 0  9997,2 52118  53.2162 151.3705 0001245  91.5190 268.5945 15.08835003 60971,6917.896,95.438,540.622,538.899,0.0
52118.0,STARLINK-3743,PAYLOAD,2023-04-16 10:03:34,15.08833695,0.00014,53.2163,149.8829,99.9967,260.1184,2.2847e-05,7.6e-07,0.0,0 STARLINK-3743,1 52118U 22029AG  23106.41914786  .00000076  00000-0  22847-4 0  9994,2 52118  53.2163 149.8829 0001400  99.9967 260.1184 15.08833695 61023,6917.9,95.438,540.733,538.796,0.0
52118.0,STARLINK-3743,PAYLOAD,2023-04-16 19:35:53,15.08837225,0.0001444,53.2163,148.099,97.6025,262.5131,1.7255e-05,-1.3e-07,0.0,0 STARLINK-3743,1 52118U 22029AG  23106.81658726 -.00000013  00000-0  17255-4 0  9996,2 52118  53.2163 148.0990 0001444  97.6025 262.5131 15.08837225 61088,6917.889,95.438,540.753,538.755,0.0
52118.0,STARLINK-3743,PAYLOAD,2023-04-17 03:32:48,15.08836783,0.000147,53.2173,146.6115,97.3003,262.8156,6.3432e-05,7.22e-06,0.0,0 STARLINK-3743,1 52118U 22029AG  23107.14778824  .00000722  00000-0  63432-4 0  9999,2 52118  53.2173 146.6115 0001470  97.3003 262.8156 15.08836783 61138,6917.89,95.438,540.772,538.738,0.0
52118.0,STARLINK-3743,PAYLOAD,2023-04-17 09:54:21,15.08835639,0.0001468,53.2171,145.4222,95.4149,264.7011,7.5477e-05,9.13e-06,0.0,0 STARLINK-3743,1 52118U 22029AG  23107.41274912  .00000913  00000-0  75477-4 0  9992,2 52118  53.2171 145.4222 0001468  95.4149 264.7011 15.08835639 61173,6917.894,95.438,540.774,538.743,0.0
52118.0,STARLINK-3743,PAYLOAD,2023-04-17 19:26:40,15.08842116,0.0001414,53.2165,143.6375,90.4243,269.6911,3.871e-05,3.28e-06,0.0,0 STARLINK-3743,1 52118U 22029AG  23107.81018634  .00000328  00000-0  38710-4 0  9992,2 52118  53.2165 143.6375 0001414  90.4243 269.6911 15.08842116 61234,6917.874,95.437,540.717,538.761,0.0
52118.0,STARLINK-3743,PAYLOAD,2023-04-18 09:45:08,15.08845134,0.0001393,53.2163,140.9604,83.0014,277.1137,0.00015772,2.223e-05,0.0,0 STARLINK-3743,1 52118U 22029AG  23108.40634308  .00002223  00000-0  15772-3 0  9998,2 52118  53.2163 140.9604 0001393  83.0014 277.1137 15.08845134 61324,6917.865,95.437,540.693,538.766,0.0
52118.0,STARLINK-3743,PAYLOAD,2023-04-19 11:11:18,15.08844603,0.000135,53.2158,136.2017,81.3886,278.7259,0.00010405,1.369e-05,0.0,0 STARLINK-3743,1 52118U 22029AG  23109.46618475  .00001369  00000-0  10405-3 0  9990,2 52118  53.2158 136.2017 0001350  81.3886 278.7259 15.08844603 61484,6917.866,95.437,540.665,538.797,0.0
52118.0,STARLINK-3743,PAYLOAD,2023-04-19 19:08:14,15.08838834,0.000137,53.2157,134.7155,77.4477,282.6668,3.0434e-05,1.96e-06,0.0,0 STARLINK-3743,1 52118U 22029AG  23109.79739011  .00000196  00000-0  30434-4 0  9998,2 52118  53.2157 134.7155 0001370  77.4477 282.6668 15.08838834 61536,6917.884,95.438,540.697,538.801,0.0
52118.0,STARLINK-3743,PAYLOAD,2023-04-20 01:29:47,15.08837667,0.0001406,53.2158,133.5267,78.377,281.7379,6.6525e-06,-1.82e-06,0.0,0 STARLINK-3743,1 52118U 22029AG  23110.06235177 -.00000182  00000-0  66525-5 0  9991,2 52118  53.2158 133.5267 0001406  78.3770 281.7379 15.08837667 61570,6917.888,95.438,540.725,538.78,0.0
52118.0,STARLINK-3743,PAYLOAD,2023-04-20 07:51:19,15.08839709,0.0001352,53.2155,132.3371,77.0432,283.0711,-3.0667e-05,-7.76e-06,0.0,0 STARLINK-3743,1 52118U 22029AG  23110.32731136 -.00000776  00000-0 -30667-4 0  9993,2 52118  53.2155 132.3371 0001352  77.0432 283.0711 15.08839709 61610,6917.881,95.438,540.682,538.811,0.0
52118.0,STARLINK-3743,PAYLOAD,2023-04-20 18:59:01,15.08842342,0.0001365,53.216,130.2555,76.6675,283.4469,-1.6185e-05,-5.46e-06,0.0,0 STARLINK-3743,1 52118U 22029AG  23110.79098846 -.00000546  00000-0 -16185-4 0  9992,2 52118  53.2160 130.2555 0001365  76.6675 283.4469 15.08842342 61683,6917.873,95.437,540.683,538.794,0.0
52118.0,STARLINK-3743,PAYLOAD,2023-04-21 06:06:43,15.08837185,0.0001118,53.2151,128.1724,88.477,271.635,1.9341e-05,2e-07,0.0,0 STARLINK-3743,1 52118U 22029AG  23111.25467089  .00000020  00000-0  19341-4 0  9995,2 52118  53.2151 128.1724 0001118  88.4770 271.6350 15.08837185 61755,6917.889,95.438,540.527,538.981,0.0
52118.0,STARLINK-3743,PAYLOAD,2023-04-21 07:42:06,15.08837127,0.0001084,53.2151,127.8749,88.2717,271.8399,1.1736e-05,-1.01e-06,0.0,0 STARLINK-3743,1 52118U 22029AG  23111.32091122 -.00000101  00000-0  11736-4 0  9995,2 52118  53.2151 127.8749 0001084  88.2717 271.8399 15.08837127 61761,6917.889,95.438,540.504,539.004,0.0
52118.0,STARLINK-3743,PAYLOAD,2023-04-22 07:32:53,15.08841831,0.0001012,53.2149,123.4155,81.4699,278.6408,0.00014059,1.951e-05,0.0,0 STARLINK-3743,1 52118U 22029AG  23112.31450641  .00001951  00000-0  14059-3 0  9993,2 52118  53.2149 123.4155 0001012  81.4699 278.6408 15.08841831 61916,6917.875,95.437,540.44,539.04,0.0
52118.0,STARLINK-3743,PAYLOAD,2023-04-22 17:05:12,15.088404,0.0001083,53.215,121.6319,79.4402,280.6712,7.5012e-05,9.06e-06,0.0,0 STARLINK-3743,1 52118U 22029AG  23112.71194893  .00000906  00000-0  75012-4 0  9997,2 52118  53.2150 121.6319 0001083  79.4402 280.6712 15.08840400 61975,6917.879,95.438,540.493,538.995,0.0
52118.0,STARLINK-3743,PAYLOAD,2023-04-23 10:34:27,15.08840745,0.0001083,53.2148,118.3605,79.1865,280.9249,2.3823e-06,-2.5e-06,0.0,0 STARLINK-3743,1 52118U 22029AG  23113.44059130 -.00000250  00000-0  23823-5 0  9999,2 52118  53.2148 118.3605 0001083  79.1865 280.9249 15.08840745 62086,6917.878,95.438,540.492,538.994,0.0
52118.0,STARLINK-3743,PAYLOAD,2023-04-24 08:49:50,15.08853265,0.0001192,53.2154,114.1974,83.9463,276.1665,0.00010898,1.448e-05,0.0,0 STARLINK-3743,1 52118U 22029AG  23114.36794063  .00001448  00000-0  10898-3 0  9997,2 52118  53.2154 114.1974 0001192  83.9463 276.1665 15.08853265 62220,6917.84,95.437,540.529,538.88,0.0
52118.0,STARLINK-3743,PAYLOAD,2023-04-25 10:16:00,15.08840014,0.0001168,53.2162,109.4385,93.7373,266.3753,2.1139e-05,4.9e-07,0.0,0 STARLINK-3743,1 52118U 22029AG  23115.42778853  .00000049  00000-0  21139-4 0  9991,2 52118  53.2162 109.4385 0001168  93.7373 266.3753 15.08840014 62388,6917.88,95.438,540.553,538.937,0.0
52118.0,STARLINK-3743,PAYLOAD,2023-04-26 08:31:26,15.08825736,0.0001362,53.2169,105.2732,89.1567,270.9581,-5.9076e-05,-1.228e-05,0.0,0 STARLINK-3743,1 52118U 22029AG  23116.35516514 -.00001228  00000-0 -59076-4 0  9991,2 52118  53.2169 105.2732 0001362  89.1567 270.9581 15.08825736 62525,6917.924,95.438,540.731,538.847,0.0
